OBJECT_NAME,OBJECT_ID,EPOCH,MEAN_MOTION,ECCENTRICITY,INCLINATION,RA_OF_ASC_NODE,ARG_OF_PERICENTER,MEAN_ANOMALY,EPHEMERIS_TYPE,CLASSIFICATION_TYPE,NORAD_CAT_ID,ELEMENT_SET_NO,REV_AT_EPOCH,BSTAR,MEAN_MOTION_DOT,MEAN_MOTION_DDOT
LEMUR-2-LAILA,2025-276DQ,2026-06-11T23:00:35.621568,15.21213534,.00018811,97.4182,236.9239,142.6147,217.5220,0,U,66776,999,2965,.25099564E-3,.5532E-4,0
LEMUR-2-CELIJO-SB-PK,2025-276DW,2026-06-11T16:47:34.359936,14.99907375,.00089014,97.5276,233.6565,145.4415,214.7389,0,U,66781,999,2180,.49688315E-3,.6114E-4,0
LEMUR-2-FINNIAN,2025-276DX,2026-06-11T17:52:33.811392,15.00308481,.00087451,97.5274,233.9095,105.6100,254.6090,0,U,66782,999,1918,.50142524E-3,.6235E-4,0
LEMUR-2-STARLIGHT,2025-276DY,2026-06-11T16:42:43.779456,14.98986446,.00152876,97.5278,233.5221,143.3688,216.8584,0,U,66783,999,2937,.41005612E-3,.4922E-4,0
LEMUR-2-TARTIFLETTE,2025-276DZ,2026-06-11T16:40:41.635776,14.99015288,.00139905,97.5282,233.5264,149.5243,210.6797,0,U,66784,999,2937,.47318202E-3,.5691E-4,0
LEMUR-2-VUKASIN,2025-276EA,2026-06-11T03:50:03.632928,15.00300144,.00063188,97.5314,233.2915,138.3619,221.8087,0,U,66785,999,2924,.39868939E-3,.4942E-4,0
LEMUR-2-HOTSPUR-TOM,2025-276EB,2026-06-11T03:40:20.284320,14.98886330,.00154495,97.5266,232.9859,145.9165,214.3054,0,U,66786,999,2922,.49163735E-3,.5898E-4,0
LEMUR-2-MYRA,2025-276EC,2026-06-11T17:23:00.523104,15.00167643,.00159378,97.5223,233.7848,159.5516,200.6349,0,U,66787,999,2939,.49716652E-3,.617E-4,0
LEMUR-2 FIKRETDENGIZ,2026-004A,2026-06-11T22:58:45.238656,14.88288269,.00096757,97.8009,161.5960,147.7877,212.3933,0,U,67363,999,2250,.38487928E-3,.3506E-4,0
TWILIGHT-1 OBJECT B,2026-004B,2026-06-11T23:30:52.187616,14.87684129,.00096272,97.8060,161.6355,139.2713,220.9225,0,U,67364,999,2251,.17459768E-3,.1537E-4,0
LEMUR-2-MARIO-SOUSA,2026-004C,2026-06-11T22:36:06.672960,14.88472311,.00093068,97.7986,161.5768,148.4644,211.7133,0,U,67365,999,2251,.47404258E-3,.4351E-4,0
LEMUR-2-SONNENBLUME,2026-004E,2026-06-11T22:32:49.577280,14.88288892,.00087621,97.7980,161.5611,150.3272,209.8443,0,U,67367,999,2251,.29585312E-3,.2682E-4,0
LEMUR-2-WOBLER,2026-004F,2026-06-11T22:24:26.865792,14.88481083,.00092014,97.8032,161.6722,140.3538,219.8353,0,U,67368,999,2251,.38872885E-3,.3558E-4,0
LEMUR-2-GRAM-E-SUE,2026-004H,2026-06-11T18:57:09.869184,14.88447094,.00078733,97.7965,161.4287,151.4814,208.6835,0,U,67370,999,2249,.22676068E-3,.2051E-4,0
LEMUR-2-KATIE,2026-004AA,2026-06-11T13:56:55.720608,14.90014268,.0004725,97.8031,161.6644,104.7192,255.4549,0,U,67387,999,2247,.34742E-3,.3297E-4,0
LEMUR-2-HCS-BAZUS,2026-004AB,2026-06-11T21:59:09.734496,14.90019308,.00042871,97.8016,161.9766,99.9622,260.2080,0,U,67388,999,2252,.42959567E-3,.4091E-4,0
