LEMUR-2-LAILA           
1 66776U 25276DQ  26162.95874562  .00005532  00000+0  25100-3 0  9992
2 66776  97.4182 236.9239 0001881 142.6147 217.5220 15.21213534 29650
LEMUR-2-CELIJO-SB-PK    
1 66781U 25276DW  26162.69970324  .00006114  00000+0  49688-3 0  9996
2 66781  97.5276 233.6565 0008901 145.4415 214.7389 14.99907375 21807
LEMUR-2-FINNIAN         
1 66782U 25276DX  26162.74483578  .00006235  00000+0  50143-3 0  9995
2 66782  97.5274 233.9095 0008745 105.6100 254.6090 15.00308481 19188
LEMUR-2-STARLIGHT       
1 66783U 25276DY  26162.69634004  .00004922  00000+0  41006-3 0  9991
2 66783  97.5278 233.5221 0015287 143.3688 216.8584 14.98986446 29378
LEMUR-2-TARTIFLETTE     
1 66784U 25276DZ  26162.69492634  .00005691  00000+0  47318-3 0  9999
2 66784  97.5282 233.5264 0013990 149.5243 210.6797 14.99015288 29371
LEMUR-2-VUKASIN         
1 66785U 25276EA  26162.15976427  .00004942  00000+0  39869-3 0  9998
2 66785  97.5314 233.2915 0006318 138.3619 221.8087 15.00300144 29240
LEMUR-2-HOTSPUR-TOM     
1 66786U 25276EB  26162.15301255  .00005898  00000+0  49164-3 0  9990
2 66786  97.5266 232.9859 0015449 145.9165 214.3054 14.98886330 29226
LEMUR-2-MYRA            
1 66787U 25276EC  26162.72431161  .00006170  00000+0  49717-3 0  9992
2 66787  97.5223 233.7848 0015937 159.5516 200.6349 15.00167643 29396
LEMUR-2 FIKRETDENGIZ    
1 67363U 26004A   26162.95746804  .00003506  00000+0  38488-3 0  9994
2 67363  97.8009 161.5960 0009675 147.7877 212.3933 14.88288269 22504
TWILIGHT-1 OBJECT B     
1 67364U 26004B   26162.97977069  .00001537  00000+0  17460-3 0  9995
2 67364  97.8060 161.6355 0009627 139.2713 220.9225 14.87684129 22517
LEMUR-2-MARIO-SOUSA     
1 67365U 26004C   26162.94174390  .00004351  00000+0  47404-3 0  9997
2 67365  97.7986 161.5768 0009306 148.4644 211.7133 14.88472311 22515
LEMUR-2-SONNENBLUME     
1 67367U 26004E   26162.93946270  .00002682  00000+0  29585-3 0  9997
2 67367  97.7980 161.5611 0008762 150.3272 209.8443 14.88288892 22513
LEMUR-2-WOBLER          
1 67368U 26004F   26162.93364428  .00003558  00000+0  38873-3 0  9990
2 67368  97.8032 161.6722 0009201 140.3538 219.8353 14.88481083 22518
LEMUR-2-GRAM-E-SUE      
1 67370U 26004H   26162.78969756  .00002051  00000+0  22676-3 0  9992
2 67370  97.7965 161.4287 0007873 151.4814 208.6835 14.88447094 22494
LEMUR-2-KATIE           
1 67387U 26004AA  26162.58120047  .00003297  00000+0  34742-3 0  9990
2 67387  97.8031 161.6644 0004725 104.7192 255.4549 14.90014268 22475
LEMUR-2-HCS-BAZUS       
1 67388U 26004AB  26162.91608489  .00004091  00000+0  42960-3 0  9993
2 67388  97.8016 161.9766 0004287  99.9622 260.2080 14.90019308 22523
